[{"OBJECT_NAME":"YAOGAN-39 03A","OBJECT_ID":"2023-152A","EPOCH":"2026-03-06T09:52:18.079104","MEAN_MOTION":15.22956575,"ECCENTRICITY":0.00039122,"INCLINATION":35.0006,"RA_OF_ASC_NODE":198.8634,"ARG_OF_PERICENTER":303.7832,"MEAN_ANOMALY":56.251,"EPHEMERIS_TYPE":0,"CLASSIFICATION_TYPE":"U","NORAD_CAT_ID":57986,"ELEMENT_SET_NO":999,"REV_AT_EPOCH":13476,"BSTAR":5.5320223e-5,"MEAN_MOTION_DOT":1.294e-5,"MEAN_MOTION_DDOT":0},{"OBJECT_NAME":"GAOFEN-11 05","OBJECT_ID":"2024-130A","EPOCH":"2026-03-09T22:37:47.360064","MEAN_MOTION":15.23784242,"ECCENTRICITY":0.00077059,"INCLINATION":97.4051,"RA_OF_ASC_NODE":148.5891,"ARG_OF_PERICENTER":100.8064,"MEAN_ANOMALY":259.4041,"EPHEMERIS_TYPE":0,"CLASSIFICATION_TYPE":"U","NORAD_CAT_ID":60249,"ELEMENT_SET_NO":999,"REV_AT_EPOCH":7035,"BSTAR":0.00034401659,"MEAN_MOTION_DOT":8.217e-5,"MEAN_MOTION_DDOT":0}]
